{"type": "FeatureCollection", "features": [ {"type": "Feature", "properties": {"norad_id": 66795, "name": "STARLINK-36047", "group": "last-30-days", "lat": 11.143480165430704, "lon": -109.2302373554375, "alt_km": 325.48489320905264, "timestamp": "2025-12-14T22:38:39.518153+00:00", "meta": {"OBJECT_NAME": "STARLINK-36047", "OBJECT_ID": "2025-278E", "EPOCH": "2025-12-14T06:00:02.999808", "MEAN_MOTION": 15.83066927, "ECCENTRICITY": 0.00018819, "INCLINATION": 42.9973, "RA_OF_ASC_NODE": 242.8174, "ARG_OF_PERICENTER": 271.5296, "MEAN_ANOMALY": 110.3058, "EPHEMERIS_TYPE": 0, "CLASSIFICATION_TYPE": "U", "NORAD_CAT_ID": 66795, "ELEMENT_SET_NO": 999, "REV_AT_EPOCH": 310, "BSTAR": -0.0062777648, "MEAN_MOTION_DOT": -0.01232106, "MEAN_MOTION_DDOT": 0}, "tle": {"line1": "1 66795U 25278E   25348.25003472 -.01232106  00000+0 -62778-2 0  9990", "line2": "2 66795  42.9973 242.8174 0001881 271.5296 110.3058 15.83066927  3106"}}, "geometry": {"type": "Point", "coordinates": [-109.2302373554375, 11.143480165430704]}}, {"type": "Feature", "properties": {"norad_id": 66796, "name": "STARLINK-35964", "group": "last-30-days", "lat": 39.18960854790088, "lon": -61.42306866375904, "alt_km": 292.67985221176696, "timestamp": "2025-12-14T22:38:39.518165+00:00", "meta": {"OBJECT_NAME": "STARLINK-35964", "OBJECT_ID": "2025-278F", "EPOCH": "2025-12-14T06:00:02.999808", "MEAN_MOTION": 15.94725878, "ECCENTRICITY": 0.00018116, "INCLINATION": 42.9942, "RA_OF_ASC_NODE": 241.8418, "ARG_OF_PERICENTER": 275.6166, "MEAN_ANOMALY": 130.0142, "EPHEMERIS_TYPE": 0, "CLASSIFICATION_TYPE": "U", "NORAD_CAT_ID": 66796, "ELEMENT_SET_NO": 999, "REV_AT_EPOCH": 304, "BSTAR": -0.0059120362, "MEAN_MOTION_DOT": -0.02328868, "MEAN_MOTION_DDOT": 0.001482682}, "tle": {"line1": "1 66796U 25278F   25348.25003472 -.02328868  14827-2 -59120-2 0  9995", "line2": "2 66796  42.9942 241.8418 0001811 275.6166 130.0142 15.94725878  3042"}}, "geometry": {"type": "Point", "coordinates": [-61.42306866375904, 39.18960854790088]}}, {"type": "Feature", "properties": {"norad_id": 66797, "name": "STARLINK-36099", "group": "last-30-days", "lat": 14.548380230795292, "lon": -105.2757833667943, "alt_km": 325.3705081032949, "timestamp": "2025-12-14T22:38:39.518175+00:00", "meta": {"OBJECT_NAME": "STARLINK-36099", "OBJECT_ID": "2025-278G", "EPOCH": "2025-12-14T06:00:02.999808", "MEAN_MOTION": 15.82987887, "ECCENTRICITY": 0.00019257, "INCLINATION": 42.9972, "RA_OF_ASC_NODE": 242.8037, "ARG_OF_PERICENTER": 273.955, "MEAN_ANOMALY": 113.2769, "EPHEMERIS_TYPE": 0, "CLASSIFICATION_TYPE": "U", "NORAD_CAT_ID": 66797, "ELEMENT_SET_NO": 999, "REV_AT_EPOCH": 326, "BSTAR": -0.0064377116, "MEAN_MOTION_DOT": -0.01255676, "MEAN_MOTION_DDOT": 0}, "tle": {"line1": "1 66797U 25278G   25348.25003472 -.01255676  00000+0 -64377-2 0  9996", "line2": "2 66797  42.9972 242.8037 0001925 273.9550 113.2769 15.82987887  3267"}}, "geometry": {"type": "Point", "coordinates": [-105.2757833667943, 14.548380230795292]}}, {"type": "Feature", "properties": {"norad_id": 66798, "name": "STARLINK-36041", "group": "last-30-days", "lat": 15.92933734300707, "lon": -103.61600624840246, "alt_km": 325.1846380782772, "timestamp": "2025-12-14T22:38:39.518184+00:00", "meta": {"OBJECT_NAME": "STARLINK-36041", "OBJECT_ID": "2025-278H", "EPOCH": "2025-12-14T06:00:02.999808", "MEAN_MOTION": 15.82985857, "ECCENTRICITY": 0.00019274, "INCLINATION": 42.9971, "RA_OF_ASC_NODE": 242.7983, "ARG_OF_PERICENTER": 275.9987, "MEAN_ANOMALY": 113.3683, "EPHEMERIS_TYPE": 0, "CLASSIFICATION_TYPE": "U", "NORAD_CAT_ID": 66798, "ELEMENT_SET_NO": 999, "REV_AT_EPOCH": 304, "BSTAR": -0.0064744785, "MEAN_MOTION_DOT": -0.01261904, "MEAN_MOTION_DDOT": 0}, "tle": {"line1": "1 66798U 25278H   25348.25003472 -.01261904  00000+0 -64745-2 0  9997", "line2": "2 66798  42.9971 242.7983 0001927 275.9987 113.3683 15.82985857  3041"}}, "geometry": {"type": "Point", "coordinates": [-103.61600624840246, 15.92933734300707]}}, {"type": "Feature", "properties": {"norad_id": 66799, "name": "STARLINK-36044", "group": "last-30-days", "lat": 17.40235478362939, "lon": -101.80219238003068, "alt_km": 325.10462805808584, "timestamp": "2025-12-14T22:38:39.518196+00:00", "meta": {"OBJECT_NAME": "STARLINK-36044", "OBJECT_ID": "2025-278J", "EPOCH": "2025-12-14T06:00:02.999808", "MEAN_MOTION": 15.82963927, "ECCENTRICITY": 0.00019672, "INCLINATION": 42.9969, "RA_OF_ASC_NODE": 242.7925, "ARG_OF_PERICENTER": 275.6306, "MEAN_ANOMALY": 116.0746, "EPHEMERIS_TYPE": 0, "CLASSIFICATION_TYPE": "U", "NORAD_CAT_ID": 66799, "ELEMENT_SET_NO": 999, "REV_AT_EPOCH": 320, "BSTAR": -0.0064896767, "MEAN_MOTION_DOT": -0.01263376, "MEAN_MOTION_DDOT": 0}, "tle": {"line1": "1 66799U 25278J   25348.25003472 -.01263376  00000+0 -64897-2 0  9991", "line2": "2 66799  42.9969 242.7925 0001967 275.6306 116.0746 15.82963927  3203"}}, "geometry": {"type": "Point", "coordinates": [-101.80219238003068, 17.40235478362939]}}, {"type": "Feature", "properties": {"norad_id": 66800, "name": "STARLINK-35996", "group": "last-30-days", "lat": 20.279587911391314, "lon": -98.10665713015835, "alt_km": 324.97621608239206, "timestamp": "2025-12-14T22:38:39.518206+00:00", "meta": {"OBJECT_NAME": "STARLINK-35996", "OBJECT_ID": "2025-278K", "EPOCH": "2025-12-14T06:00:02.999808", "MEAN_MOTION": 15.82931925, "ECCENTRICITY": 0.0001856, "INCLINATION": 42.997, "RA_OF_ASC_NODE": 242.7804, "ARG_OF_PERICENTER": 273.5207, "MEAN_ANOMALY": 122.8347, "EPHEMERIS_TYPE": 0, "CLASSIFICATION_TYPE": "U", "NORAD_CAT_ID": 66800, "ELEMENT_SET_NO": 999, "REV_AT_EPOCH": 299, "BSTAR": -0.006594931, "MEAN_MOTION_DOT": -0.01279634, "MEAN_MOTION_DDOT": 0}, "tle": {"line1": "1 66800U 25278K   25348.25003472 -.01279634  00000+0 -65949-2 0  9997", "line2": "2 66800  42.9970 242.7804 0001856 273.5207 122.8347 15.82931925  2998"}}, "geometry": {"type": "Point", "coordinates": [-98.10665713015835, 20.279587911391314]}}, {"type": "Feature", "properties": {"norad_id": 66801, "name": "STARLINK-36080", "group": "last-30-days", "lat": 27.061441727564013, "lon": -88.24936454262954, "alt_km": 324.38861681257004, "timestamp": "2025-12-14T22:38:39.518216+00:00", "meta": {"OBJECT_NAME": "STARLINK-36080", "OBJECT_ID": "2025-278L", "EPOCH": "2025-12-14T06:00:02.999808", "MEAN_MOTION": 15.82850058, "ECCENTRICITY": 0.00019314, "INCLINATION": 42.9971, "RA_OF_ASC_NODE": 242.7506, "ARG_OF_PERICENTER": 280.3023, "MEAN_ANOMALY": 127.6263, "EPHEMERIS_TYPE": 0, "CLASSIFICATION_TYPE": "U", "NORAD_CAT_ID": 66801, "ELEMENT_SET_NO": 999, "REV_AT_EPOCH": 320, "BSTAR": -0.006828343, "MEAN_MOTION_DOT": -0.01314895, "MEAN_MOTION_DDOT": 0}, "tle": {"line1": "1 66801U 25278L   25348.25003472 -.01314895  00000+0 -68283-2 0  9991", "line2": "2 66801  42.9971 242.7506 0001931 280.3023 127.6263 15.82850058  3207"}}, "geometry": {"type": "Point", "coordinates": [-88.24936454262954, 27.061441727564013]}}, {"type": "Feature", "properties": {"norad_id": 66802, "name": "STARLINK-35604", "group": "last-30-days", "lat": 18.773162126672467, "lon": -100.06915598253634, "alt_km": 324.8705697662899, "timestamp": "2025-12-14T22:38:39.518226+00:00", "meta": {"OBJECT_NAME": "STARLINK-35604", "OBJECT_ID": "2025-278M", "EPOCH": "2025-12-14T06:00:02.999808", "MEAN_MOTION": 15.82961047, "ECCENTRICITY": 0.00019121, "INCLINATION": 42.997, "RA_OF_ASC_NODE": 242.7868, "ARG_OF_PERICENTER": 278.8346, "MEAN_ANOMALY": 115.0361, "EPHEMERIS_TYPE": 0, "CLASSIFICATION_TYPE": "U", "NORAD_CAT_ID": 66802, "ELEMENT_SET_NO": 999, "REV_AT_EPOCH": 320, "BSTAR": -0.0065247264, "MEAN_MOTION_DOT": -0.01269207, "MEAN_MOTION_DDOT": 0}, "tle": {"line1": "1 66802U 25278M   25348.25003472 -.01269207  00000+0 -65247-2 0  9995", "line2": "2 66802  42.9970 242.7868 0001912 278.8346 115.0361 15.82961047  3208"}}, "geometry": {"type": "Point", "coordinates": [-100.06915598253634, 18.773162126672467]}}, {"type": "Feature", "properties": {"norad_id": 66803, "name": "STARLINK-35565", "group": "last-30-days", "lat": 21.61416445778547, "lon": -96.31038706670715, "alt_km": 324.74106935383134, "timestamp": "2025-12-14T22:38:39.518235+00:00", "meta": {"OBJECT_NAME": "STARLINK-35565", "OBJECT_ID": "2025-278N", "EPOCH": "2025-12-14T06:00:02.999808", "MEAN_MOTION": 15.82923737, "ECCENTRICITY": 0.00019046, "INCLINATION": 42.9971, "RA_OF_ASC_NODE": 242.7751, "ARG_OF_PERICENTER": 277.597, "MEAN_ANOMALY": 120.9283, "EPHEMERIS_TYPE": 0, "CLASSIFICATION_TYPE": "U", "NORAD_CAT_ID": 66803, "ELEMENT_SET_NO": 999, "REV_AT_EPOCH": 328, "BSTAR": -0.0066106286, "MEAN_MOTION_DOT": -0.01281907, "MEAN_MOTION_DDOT": 0}, "tle": {"line1": "1 66803U 25278N   25348.25003472 -.01281907  00000+0 -66106-2 0  9992", "line2": "2 66803  42.9971 242.7751 0001904 277.5970 120.9283 15.82923737  3281"}}, "geometry": {"type": "Point", "coordinates": [-96.31038706670715, 21.61416445778547]}}, {"type": "Feature", "properties": {"norad_id": 66804, "name": "STARLINK-36038", "group": "last-30-days", "lat": 23.111472585888958, "lon": -94.22193130008453, "alt_km": 324.75713044872464, "timestamp": "2025-12-14T22:38:39.518245+00:00", "meta": {"OBJECT_NAME": "STARLINK-36038", "OBJECT_ID": "2025-278P", "EPOCH": "2025-12-14T06:00:02.999808", "MEAN_MOTION": 15.82890614, "ECCENTRICITY": 0.00019032, "INCLINATION": 42.9973, "RA_OF_ASC_NODE": 242.7688, "ARG_OF_PERICENTER": 275.3077, "MEAN_ANOMALY": 125.7612, "EPHEMERIS_TYPE": 0, "CLASSIFICATION_TYPE": "U", "NORAD_CAT_ID": 66804, "ELEMENT_SET_NO": 999, "REV_AT_EPOCH": 320, "BSTAR": -0.0066592598, "MEAN_MOTION_DOT": -0.01288411, "MEAN_MOTION_DDOT": 0}, "tle": {"line1": "1 66804U 25278P   25348.25003472 -.01288411  00000+0 -66593-2 0  9990", "line2": "2 66804  42.9973 242.7688 0001903 275.3077 125.7612 15.82890614  3204"}}, "geometry": {"type": "Point", "coordinates": [-94.22193130008453, 23.111472585888958]}}]}